KUIPER-00065            
1 64525U 25134AB  26062.81426442  .00004619  00000+0  64453-3 0  9998
2 64525  51.9022 266.6563 0001422 210.1733 149.9148 14.79260932 39082
KUIPER-00066            
1 64526U 25134AC  26064.10898867  .00020026  00000+0  84866-3 0  9997
2 64526  51.8716 205.6788 0003179  69.5324 290.5997 15.23123907 40062
KUIPER-00069            
1 64816U 25151A   26064.05451828 -.00001440  00000+0 -15992-3 0  9999
2 64816  51.9039 301.1237 0000938  79.4711 280.6357 14.79930882 36078
KUIPER-00070            
1 64817U 25151B   26064.12886762  .00006374  00000+0  86453-3 0  9996
2 64817  51.9039 325.7292 0000815  91.7779 268.3277 14.79925581 35744
KUIPER-00071            
1 64818U 25151C   26064.13124248  .00006443  00000+0  87121-3 0  9992
2 64818  51.9021 323.2371 0000566 247.4406 112.6496 14.80034918 34590
KUIPER-00072            
1 64819U 25151D   26064.05177284 -.00003501  00000+0 -43030-3 0  9997
2 64819  51.8984 303.5775 0000895  79.4333 280.6730 14.79948805 34868
KUIPER-00073            
1 64820U 25151E   26063.76012987  .00003421  00000+0  47741-3 0  9996
2 64820  51.9020 324.8741 0000978 111.3089 248.7978 14.79945036 35725
KUIPER-00074            
1 64821U 25151F   26064.16668981  .01248070  00000+0  93438-1 0  9997
2 64821  51.9038 310.0474 0000904 274.7939 305.6473 14.99259185  3781
KUIPER-00075            
1 64822U 25151G   26063.52553071  .00068719  00000+0  16010-2 0  9991
2 64822  51.8704 246.9192 0003572 251.3232 108.7369 15.41624201 35601
KUIPER-00076            
1 64823U 25151H   26064.09972359  .00006139  00000+0  82306-3 0  9999
2 64823  51.9005 313.2943 0000625  13.4813 346.6166 14.80471515 34738
KUIPER-00077            
1 64824U 25151J   26063.96686710  .00005913  00000+0  79999-3 0  9991
2 64824  51.9035 318.9732 0000984 188.6458 171.4487 14.80145217 34645
KUIPER-00078            
1 64825U 25151K   26064.13963478 -.00000541  00000+0 -41919-4 0  9997
2 64825  51.9016 315.7078 0000579  63.8871 296.2151 14.79929921 34707
KUIPER-00079            
1 64826U 25151L   26064.10033021  .00004252  00000+0  58608-3 0  9990
2 64826  51.9009 320.8579 0000764  87.6787 272.4262 14.79954694 35827
KUIPER-00080            
1 64827U 25151M   26064.13423370  .00000652  00000+0  11447-3 0  9994
2 64827  51.9030 320.7174 0000688 103.5270 256.5769 14.79933863 34630
KUIPER-00082            
1 64828U 25151N   26064.04639044  .00000623  00000+0  11073-3 0  9995
2 64828  51.8981 308.6344 0000770 112.7580 247.3463 14.79929265 34794
KUIPER-00083            
1 64829U 25151P   26064.10586530 -.00000624  00000+0 -52816-4 0  9998
2 64829  51.9047 315.8631 0000792 107.8085 252.2964 14.79933736 35887
KUIPER-00084            
1 64830U 25151Q   26064.16267926 -.00022278  00000+0 -29123-2 0  9993
2 64830  51.9015 325.5937 0000865 212.3537 147.7373 14.79799164 34567
