[{"OBJECT_NAME":"KUIPER-00065","OBJECT_ID":"2025-134AB","EPOCH":"2026-03-03T19:32:32.445888","MEAN_MOTION":14.79260932,"ECCENTRICITY":0.0001422,"INCLINATION":51.9022,"RA_OF_ASC_NODE":266.6563,"ARG_OF_PERICENTER":210.1733,"MEAN_ANOMALY":149.9148,"EPHEMERIS_TYPE":0,"CLASSIFICATION_TYPE":"U","NORAD_CAT_ID":64525,"ELEMENT_SET_NO":999,"REV_AT_EPOCH":3908,"BSTAR":0.00064453,"MEAN_MOTION_DOT":4.619e-5,"MEAN_MOTION_DDOT":0},{"OBJECT_NAME":"KUIPER-00066","OBJECT_ID":"2025-134AC","EPOCH":"2026-03-05T02:36:56.621088","MEAN_MOTION":15.23123907,"ECCENTRICITY":0.0003179,"INCLINATION":51.8716,"RA_OF_ASC_NODE":205.6788,"ARG_OF_PERICENTER":69.5324,"MEAN_ANOMALY":290.5997,"EPHEMERIS_TYPE":0,"CLASSIFICATION_TYPE":"U","NORAD_CAT_ID":64526,"ELEMENT_SET_NO":999,"REV_AT_EPOCH":4006,"BSTAR":0.00084866,"MEAN_MOTION_DOT":0.00020026,"MEAN_MOTION_DDOT":0},{"OBJECT_NAME":"KUIPER-00069","OBJECT_ID":"2025-151A","EPOCH":"2026-03-05T01:18:30.379392","MEAN_MOTION":14.79930882,"ECCENTRICITY":9.38e-5,"INCLINATION":51.9039,"RA_OF_ASC_NODE":301.1237,"ARG_OF_PERICENTER":79.4711,"MEAN_ANOMALY":280.6357,"EPHEMERIS_TYPE":0,"CLASSIFICATION_TYPE":"U","NORAD_CAT_ID":64816,"ELEMENT_SET_NO":999,"REV_AT_EPOCH":3607,"BSTAR":-0.00015992,"MEAN_MOTION_DOT":-1.44e-5,"MEAN_MOTION_DDOT":0},{"OBJECT_NAME":"KUIPER-00070","OBJECT_ID":"2025-151B","EPOCH":"2026-03-05T03:05:34.162368","MEAN_MOTION":14.79925581,"ECCENTRICITY":8.15e-5,"INCLINATION":51.9039,"RA_OF_ASC_NODE":325.7292,"ARG_OF_PERICENTER":91.7779,"MEAN_ANOMALY":268.3277,"EPHEMERIS_TYPE":0,"CLASSIFICATION_TYPE":"U","NORAD_CAT_ID":64817,"ELEMENT_SET_NO":999,"REV_AT_EPOCH":3574,"BSTAR":0.00086453,"MEAN_MOTION_DOT":6.374e-5,"MEAN_MOTION_DDOT":0},{"OBJECT_NAME":"KUIPER-00071","OBJECT_ID":"2025-151C","EPOCH":"2026-03-05T03:08:59.350272","MEAN_MOTION":14.80034918,"ECCENTRICITY":5.66e-5,"INCLINATION":51.9021,"RA_OF_ASC_NODE":323.2371,"ARG_OF_PERICENTER":247.4406,"MEAN_ANOMALY":112.6496,"EPHEMERIS_TYPE":0,"CLASSIFICATION_TYPE":"U","NORAD_CAT_ID":64818,"ELEMENT_SET_NO":999,"REV_AT_EPOCH":3459,"BSTAR":0.00087121,"MEAN_MOTION_DOT":6.443e-5,"MEAN_MOTION_DDOT":0},{"OBJECT_NAME":"KUIPER-00072","OBJECT_ID":"2025-151D","EPOCH":"2026-03-05T01:14:33.173376","MEAN_MOTION":14.79948805,"ECCENTRICITY":8.95e-5,"INCLINATION":51.8984,"RA_OF_ASC_NODE":303.5775,"ARG_OF_PERICENTER":79.4333,"MEAN_ANOMALY":280.673,"EPHEMERIS_TYPE":0,"CLASSIFICATION_TYPE":"U","NORAD_CAT_ID":64819,"ELEMENT_SET_NO":999,"REV_AT_EPOCH":3486,"BSTAR":-0.0004303,"MEAN_MOTION_DOT":-3.501e-5,"MEAN_MOTION_DDOT":0},{"OBJECT_NAME":"KUIPER-00073","OBJECT_ID":"2025-151E","EPOCH":"2026-03-04T18:14:35.220768","MEAN_MOTION":14.79945036,"ECCENTRICITY":9.78e-5,"INCLINATION":51.902,"RA_OF_ASC_NODE":324.8741,"ARG_OF_PERICENTER":111.3089,"MEAN_ANOMALY":248.7978,"EPHEMERIS_TYPE":0,"CLASSIFICATION_TYPE":"U","NORAD_CAT_ID":64820,"ELEMENT_SET_NO":999,"REV_AT_EPOCH":3572,"BSTAR":0.00047741,"MEAN_MOTION_DOT":3.421e-5,"MEAN_MOTION_DDOT":0},{"OBJECT_NAME":"KUIPER-00074","OBJECT_ID":"2025-151F","EPOCH":"2026-03-05T04:00:01.999584","MEAN_MOTION":14.99259185,"ECCENTRICITY":9.04e-5,"INCLINATION":51.9038,"RA_OF_ASC_NODE":310.0474,"ARG_OF_PERICENTER":274.7939,"MEAN_ANOMALY":305.6473,"EPHEMERIS_TYPE":0,"CLASSIFICATION_TYPE":"U","NORAD_CAT_ID":64821,"ELEMENT_SET_NO":999,"REV_AT_EPOCH":378,"BSTAR":0.093438,"MEAN_MOTION_DOT":0.0124807,"MEAN_MOTION_DDOT":0},{"OBJECT_NAME":"KUIPER-00075","OBJECT_ID":"2025-151G","EPOCH":"2026-03-04T12:36:45.853344","MEAN_MOTION":15.41624201,"ECCENTRICITY":0.00035722,"INCLINATION":51.8704,"RA_OF_ASC_NODE":246.9192,"ARG_OF_PERICENTER":251.3232,"MEAN_ANOMALY":108.7369,"EPHEMERIS_TYPE":0,"CLASSIFICATION_TYPE":"U","NORAD_CAT_ID":64822,"ELEMENT_SET_NO":999,"REV_AT_EPOCH":3560,"BSTAR":0.0016010138,"MEAN_MOTION_DOT":0.00068719,"MEAN_MOTION_DDOT":0},{"OBJECT_NAME":"KUIPER-00076","OBJECT_ID":"2025-151H","EPOCH":"2026-03-05T02:23:36.118176","MEAN_MOTION":14.80471515,"ECCENTRICITY":6.25e-5,"INCLINATION":51.9005,"RA_OF_ASC_NODE":313.2943,"ARG_OF_PERICENTER":13.4813,"MEAN_ANOMALY":346.6166,"EPHEMERIS_TYPE":0,"CLASSIFICATION_TYPE":"U","NORAD_CAT_ID":64823,"ELEMENT_SET_NO":999,"REV_AT_EPOCH":3473,"BSTAR":0.00082306,"MEAN_MOTION_DOT":6.139e-5,"MEAN_MOTION_DDOT":0},{"OBJECT_NAME":"KUIPER-00077","OBJECT_ID":"2025-151J","EPOCH":"2026-03-04T23:12:17.317440","MEAN_MOTION":14.80145217,"ECCENTRICITY":9.84e-5,"INCLINATION":51.9035,"RA_OF_ASC_NODE":318.9732,"ARG_OF_PERICENTER":188.6458,"MEAN_ANOMALY":171.4487,"EPHEMERIS_TYPE":0,"CLASSIFICATION_TYPE":"U","NORAD_CAT_ID":64824,"ELEMENT_SET_NO":999,"REV_AT_EPOCH":3464,"BSTAR":0.00079999,"MEAN_MOTION_DOT":5.913e-5,"MEAN_MOTION_DDOT":0},{"OBJECT_NAME":"KUIPER-00078","OBJECT_ID":"2025-151K","EPOCH":"2026-03-05T03:21:04.444992","MEAN_MOTION":14.79929921,"ECCENTRICITY":5.79e-5,"INCLINATION":51.9016,"RA_OF_ASC_NODE":315.7078,"ARG_OF_PERICENTER":63.8871,"MEAN_ANOMALY":296.2151,"EPHEMERIS_TYPE":0,"CLASSIFICATION_TYPE":"U","NORAD_CAT_ID":64825,"ELEMENT_SET_NO":999,"REV_AT_EPOCH":3470,"BSTAR":-4.1919e-5,"MEAN_MOTION_DOT":-5.41e-6,"MEAN_MOTION_DDOT":0},{"OBJECT_NAME":"KUIPER-00079","OBJECT_ID":"2025-151L","EPOCH":"2026-03-05T02:24:28.530144","MEAN_MOTION":14.79954694,"ECCENTRICITY":7.64e-5,"INCLINATION":51.9009,"RA_OF_ASC_NODE":320.8579,"ARG_OF_PERICENTER":87.6787,"MEAN_ANOMALY":272.4262,"EPHEMERIS_TYPE":0,"CLASSIFICATION_TYPE":"U","NORAD_CAT_ID":64826,"ELEMENT_SET_NO":999,"REV_AT_EPOCH":3582,"BSTAR":0.00058608,"MEAN_MOTION_DOT":4.252e-5,"MEAN_MOTION_DDOT":0},{"OBJECT_NAME":"KUIPER-00080","OBJECT_ID":"2025-151M","EPOCH":"2026-03-05T03:13:17.791680","MEAN_MOTION":14.79933863,"ECCENTRICITY":6.88e-5,"INCLINATION":51.903,"RA_OF_ASC_NODE":320.7174,"ARG_OF_PERICENTER":103.527,"MEAN_ANOMALY":256.5769,"EPHEMERIS_TYPE":0,"CLASSIFICATION_TYPE":"U","NORAD_CAT_ID":64827,"ELEMENT_SET_NO":999,"REV_AT_EPOCH":3463,"BSTAR":0.00011447,"MEAN_MOTION_DOT":6.52e-6,"MEAN_MOTION_DDOT":0},{"OBJECT_NAME":"KUIPER-00082","OBJECT_ID":"2025-151N","EPOCH":"2026-03-05T01:06:48.134016","MEAN_MOTION":14.79929265,"ECCENTRICITY":7.7e-5,"INCLINATION":51.8981,"RA_OF_ASC_NODE":308.6344,"ARG_OF_PERICENTER":112.758,"MEAN_ANOMALY":247.3463,"EPHEMERIS_TYPE":0,"CLASSIFICATION_TYPE":"U","NORAD_CAT_ID":64828,"ELEMENT_SET_NO":999,"REV_AT_EPOCH":3479,"BSTAR":0.00011073,"MEAN_MOTION_DOT":6.23e-6,"MEAN_MOTION_DDOT":0},{"OBJECT_NAME":"KUIPER-00083","OBJECT_ID":"2025-151P","EPOCH":"2026-03-05T02:32:26.761920","MEAN_MOTION":14.79933736,"ECCENTRICITY":7.92e-5,"INCLINATION":51.9047,"RA_OF_ASC_NODE":315.8631,"ARG_OF_PERICENTER":107.8085,"MEAN_ANOMALY":252.2964,"EPHEMERIS_TYPE":0,"CLASSIFICATION_TYPE":"U","NORAD_CAT_ID":64829,"ELEMENT_SET_NO":999,"REV_AT_EPOCH":3588,"BSTAR":-5.2816e-5,"MEAN_MOTION_DOT":-6.24e-6,"MEAN_MOTION_DDOT":0},{"OBJECT_NAME":"KUIPER-00084","OBJECT_ID":"2025-151Q","EPOCH":"2026-03-05T03:54:15.488064","MEAN_MOTION":14.79799164,"ECCENTRICITY":8.65e-5,"INCLINATION":51.9015,"RA_OF_ASC_NODE":325.5937,"ARG_OF_PERICENTER":212.3537,"MEAN_ANOMALY":147.7373,"EPHEMERIS_TYPE":0,"CLASSIFICATION_TYPE":"U","NORAD_CAT_ID":64830,"ELEMENT_SET_NO":999,"REV_AT_EPOCH":3456,"BSTAR":-0.0029123,"MEAN_MOTION_DOT":-0.00022278,"MEAN_MOTION_DDOT":0}]
